IRIDIUM 33 DEB          
1 33849U 97051S   17345.90397511  .00004819  00000-0  13106-2 0  9999
2 33849  86.1072 129.4563 0068574 197.4356 162.4492 14.45938164459188
